{
  "type": "FeatureCollection",
  "features": [
    {
      "type": "Feature",
      "properties": {
        "norad_id": 38091,
        "name": "BEIDOU-2 G5 (C05)",
        "group": "gnss",
        "lat": 2.5386157984160342,
        "lon": 124.74935684906306,
        "alt_km": 35836.87235343496,
        "timestamp": "2025-12-15T22:44:29.169182+00:00",
        "meta_object_name": "BEIDOU-2 G5 (C05)",
        "meta_object_id": "2012-008A",
        "meta_epoch": "2025-12-15T03:23:43.136736",
        "meta_mean_motion": 1.00276721,
        "meta_eccentricity": 0.00125212,
        "meta_inclination": 3.1153,
        "meta_ra_of_asc_node": 70.7032,
        "meta_arg_of_pericenter": 228.685,
        "meta_mean_anomaly": 254.4221,
        "meta_ephemeris_type": 0,
        "meta_classification_type": "U",
        "meta_norad_cat_id": 38091,
        "meta_element_set_no": 999,
        "meta_rev_at_epoch": 5052,
        "meta_bstar": 0,
        "meta_mean_motion_dot": 7.4e-07,
        "meta_mean_motion_ddot": 0,
        "tle_line1": "1 38091U 12008A   25349.14147149  .00000074  00000+0  00000+0 0  9995",
        "tle_line2": "2 38091   3.1153  70.7032 0012521 228.6850 254.4221  1.00276721 50525"
      },
      "geometry": {
        "type": "Point",
        "coordinates": [
          124.74935684906306,
          2.5386157984160342
        ]
      }
    },
    {
      "type": "Feature",
      "properties": {
        "norad_id": 38250,
        "name": "BEIDOU-2 M3 (C11)",
        "group": "gnss",
        "lat": -55.79513872052182,
        "lon": -144.4137318210601,
        "alt_km": 21466.808567965727,
        "timestamp": "2025-12-15T22:44:29.169196+00:00",
        "meta_object_name": "BEIDOU-2 M3 (C11)",
        "meta_object_id": "2012-018A",
        "meta_epoch": "2025-12-13T22:30:51.861600",
        "meta_mean_motion": 1.86229879,
        "meta_eccentricity": 0.00242907,
        "meta_inclination": 55.9188,
        "meta_ra_of_asc_node": 311.1166,
        "meta_arg_of_pericenter": 274.3199,
        "meta_mean_anomaly": 85.3911,
        "meta_ephemeris_type": 0,
        "meta_classification_type": "U",
        "meta_norad_cat_id": 38250,
        "meta_element_set_no": 999,
        "meta_rev_at_epoch": 9249,
        "meta_bstar": 0,
        "meta_mean_motion_dot": -9.6e-07,
        "meta_mean_motion_ddot": 0,
        "tle_line1": "1 38250U 12018A   25347.93810025 -.00000096  00000+0  00000+0 0  9993",
        "tle_line2": "2 38250  55.9188 311.1166 0024290 274.3199  85.3911  1.86229879 92490"
      },
      "geometry": {
        "type": "Point",
        "coordinates": [
          -144.4137318210601,
          -55.79513872052182
        ]
      }
    },
    {
      "type": "Feature",
      "properties": {
        "norad_id": 38251,
        "name": "BEIDOU-2 M4 (C12)",
        "group": "gnss",
        "lat": -37.431990958058776,
        "lon": -81.06529443991062,
        "alt_km": 21497.433711755613,
        "timestamp": "2025-12-15T22:44:29.169207+00:00",
        "meta_object_name": "BEIDOU-2 M4 (C12)",
        "meta_object_id": "2012-018B",
        "meta_epoch": "2025-12-13T07:59:48.422112",
        "meta_mean_motion": 1.86229462,
        "meta_eccentricity": 0.00154528,
        "meta_inclination": 55.8208,
        "meta_ra_of_asc_node": 310.3658,
        "meta_arg_of_pericenter": 277.4494,
        "meta_mean_anomaly": 82.3644,
        "meta_ephemeris_type": 0,
        "meta_classification_type": "U",
        "meta_norad_cat_id": 38251,
        "meta_element_set_no": 999,
        "meta_rev_at_epoch": 9248,
        "meta_bstar": 0,
        "meta_mean_motion_dot": -9.5e-07,
        "meta_mean_motion_ddot": 0,
        "tle_line1": "1 38251U 12018B   25347.33319933 -.00000095  00000+0  00000+0 0  9999",
        "tle_line2": "2 38251  55.8208 310.3658 0015452 277.4494  82.3644  1.86229462 92489"
      },
      "geometry": {
        "type": "Point",
        "coordinates": [
          -81.06529443991062,
          -37.431990958058776
        ]
      }
    },
    {
      "type": "Feature",
      "properties": {
        "norad_id": 38652,
        "name": "SES-5 (EGNOS/PRN 136)",
        "group": "gnss",
        "lat": 0.06677176441538353,
        "lon": 70.93895307534785,
        "alt_km": 35794.0263292028,
        "timestamp": "2025-12-15T22:44:29.169219+00:00",
        "meta_object_name": "SES-5 (EGNOS/PRN 136)",
        "meta_object_id": "2012-036A",
        "meta_epoch": "2025-12-15T01:25:36.857568",
        "meta_mean_motion": 1.00271394,
        "meta_eccentricity": 0.00019711,
        "meta_inclination": 0.0577,
        "meta_ra_of_asc_node": 304.8332,
        "meta_arg_of_pericenter": 324.9931,
        "meta_mean_anomaly": 200.5243,
        "meta_ephemeris_type": 0,
        "meta_classification_type": "U",
        "meta_norad_cat_id": 38652,
        "meta_element_set_no": 999,
        "meta_rev_at_epoch": 4261,
        "meta_bstar": 0,
        "meta_mean_motion_dot": 5.4e-07,
        "meta_mean_motion_ddot": 0,
        "tle_line1": "1 38652U 12036A   25349.05945437  .00000054  00000+0  00000+0 0  9993",
        "tle_line2": "2 38652   0.0577 304.8332 0001971 324.9931 200.5243  1.00271394 42613"
      },
      "geometry": {
        "type": "Point",
        "coordinates": [
          70.93895307534785,
          0.06677176441538353
        ]
      }
    },
    {
      "type": "Feature",
      "properties": {
        "norad_id": 38775,
        "name": "BEIDOU-2 M6 (C14)",
        "group": "gnss",
        "lat": 27.23635069659475,
        "lon": -131.02579765321724,
        "alt_km": 21554.729138583676,
        "timestamp": "2025-12-15T22:44:29.169231+00:00",
        "meta_object_name": "BEIDOU-2 M6 (C14)",
        "meta_object_id": "2012-050B",
        "meta_epoch": "2025-12-14T02:49:55.180128",
        "meta_mean_motion": 1.86230875,
        "meta_eccentricity": 0.0011244,
        "meta_inclination": 56.3796,
        "meta_ra_of_asc_node": 69.0216,
        "meta_arg_of_pericenter": 344.0149,
        "meta_mean_anomaly": 15.9678,
        "meta_ephemeris_type": 0,
        "meta_classification_type": "U",
        "meta_norad_cat_id": 38775,
        "meta_element_set_no": 999,
        "meta_rev_at_epoch": 8986,
        "meta_bstar": 0,
        "meta_mean_motion_dot": -8.2e-07,
        "meta_mean_motion_ddot": 0,
        "tle_line1": "1 38775U 12050B   25348.11799977 -.00000082  00000+0  00000+0 0  9999",
        "tle_line2": "2 38775  56.3796  69.0216 0011244 344.0149  15.9678  1.86230875 89866"
      },
      "geometry": {
        "type": "Point",
        "coordinates": [
          -131.02579765321724,
          27.23635069659475
        ]
      }
    },
    {
      "type": "Feature",
      "properties": {
        "norad_id": 38779,
        "name": "GSAT-10 (GAGAN/PRN 128)",
        "group": "gnss",
        "lat": -0.06928594371548495,
        "lon": 148.98040769038292,
        "alt_km": 35776.07331697195,
        "timestamp": "2025-12-15T22:44:29.169243+00:00",
        "meta_object_name": "GSAT-10 (GAGAN/PRN 128)",
        "meta_object_id": "2012-051B",
        "meta_epoch": "2025-12-15T03:30:34.979616",
        "meta_mean_motion": 1.00272944,
        "meta_eccentricity": 0.00024819,
        "meta_inclination": 0.084,
        "meta_ra_of_asc_node": 266.1164,
        "meta_arg_of_pericenter": 221.6928,
        "meta_mean_anomaly": 91.9035,
        "meta_ephemeris_type": 0,
        "meta_classification_type": "U",
        "meta_norad_cat_id": 38779,
        "meta_element_set_no": 999,
        "meta_rev_at_epoch": 4825,
        "meta_bstar": 0,
        "meta_mean_motion_dot": -1.45e-06,
        "meta_mean_motion_ddot": 0,
        "tle_line1": "1 38779U 12051B   25349.14623819 -.00000145  00000+0  00000+0 0  9999",
        "tle_line2": "2 38779   0.0840 266.1164 0002481 221.6928  91.9035  1.00272944 48254"
      },
      "geometry": {
        "type": "Point",
        "coordinates": [
          148.98040769038292,
          -0.06928594371548495
        ]
      }
    },
    {
      "type": "Feature",
      "properties": {
        "norad_id": 38833,
        "name": "GPS BIIF-3  (PRN 24)",
        "group": "gnss",
        "lat": 51.89421630583445,
        "lon": -138.43917663471188,
        "alt_km": 19722.24552024085,
        "timestamp": "2025-12-15T22:44:29.169255+00:00",
        "meta_object_name": "GPS BIIF-3  (PRN 24)",
        "meta_object_id": "2012-053A",
        "meta_epoch": "2025-12-14T20:17:27.870144",
        "meta_mean_motion": 2.00565059,
        "meta_eccentricity": 0.01759136,
        "meta_inclination": 53.558,
        "meta_ra_of_asc_node": 151.1523,
        "meta_arg_of_pericenter": 64.0191,
        "meta_mean_anomaly": 297.785,
        "meta_ephemeris_type": 0,
        "meta_classification_type": "U",
        "meta_norad_cat_id": 38833,
        "meta_element_set_no": 999,
        "meta_rev_at_epoch": 9574,
        "meta_bstar": 0,
        "meta_mean_motion_dot": 8.8e-07,
        "meta_mean_motion_ddot": 0,
        "tle_line1": "1 38833U 12053A   25348.84546146  .00000088  00000+0  00000+0 0  9990",
        "tle_line2": "2 38833  53.5580 151.1523 0175913  64.0191 297.7850  2.00565059 95743"
      },
      "geometry": {
        "type": "Point",
        "coordinates": [
          -138.43917663471188,
          51.89421630583445
        ]
      }
    }
  ]
}